BEESAT-4                
1 41619U 16040W   21298.10771589  .00003647  00000-0  14302-3 0  9995
2 41619  97.2537 350.5170 0009204 225.7335 134.3150 15.26337300284785
CAS-2T & KS-1Q          
1 41847U 16066G   21298.15417213  .00000288  00000-0  53646-4 0  9995
2 41847  98.5861 357.7289 0364891 192.9920 166.1672 14.38259936260521
NAYIF-1 (EO-88)         
1 42017U 17008BX  21298.17629679  .00004094  00000-0  14749-3 0  9994
2 42017  97.3021   3.4269 0006117  24.2797 335.8730 15.29107603261077
ZHUHAI-1 02 (CAS-4B)    
1 42759U 17034B   21298.19153094  .00000920  00000-0  68148-4 0  9998
2 42759  43.0175 187.7083 0009023 260.3753 237.1208 15.10471113240769
ZHUHAI-1 01 (CAS-4A)    
1 42761U 17034D   21298.44535571  .00000939  00000-0  69140-4 0  9996
2 42761  43.0180 185.2721 0009647 263.3402 266.1589 15.10558097240802
MAX VALIER SAT          
1 42778U 17036P   21298.12494692  .00002315  00000-0  97827-4 0  9992
2 42778  97.2400 342.4188 0013407  81.1720 279.1035 15.24137944241033
RADFXSAT (FOX-1B)       
1 43017U 17073E   21298.23792669  .00001063  00000-0  87341-4 0  9996
2 43017  97.6930 197.0046 0252528 236.6441 121.0373 14.79875434212316
FOX-1D (AO-92)          
1 43137U 18004AC  21298.14213934  .00002857  00000-0  11425-3 0  9998
2 43137  97.3956  10.8141 0010178 111.0871 249.1456 15.25871859210432
DIWATA-2B               
1 43678U 18084H   21298.51247853  .00000254  00000-0  30954-4 0  9992
2 43678  97.9407  64.5931 0009548 350.1134   9.9910 14.91812808162826
ES'HAIL 2               
1 43700U 18090A   21298.26160519  .00000152  00000-0  00000-0 0  9992
2 43700   0.0195 240.0328 0002592   3.3235 270.5033  1.00271696 10670
FOX-1CLIFF (AO-95)      
1 43770U 18099N   21298.19489345  .00000913  00000-0  87441-4 0  9994
2 43770  97.6521   5.4398 0013920 349.6069  10.4862 14.95489921157842
ITASAT 1                
1 43786U 18099AE  21298.15637137  .00000585  00000-0  57491-4 0  9998
2 43786  97.6547   6.1705 0014526 342.8049  17.2678 14.95765773157878
JY1SAT (JO-97)          
1 43803U 18099AX  21298.16442881  .00000338  00000-0  35114-4 0  9993
2 43803  97.6508   5.9181 0014493 342.0839  17.9869 14.96046637157884
UWE-4                   
1 43880U 18111E   21298.26134188  .00000544  00000-0  52152-4 0  9992
2 43880  97.6761 203.7141 0013016  33.8229 326.3821 14.97055950154502
NEXUS (FO-99)           
1 43937U 19003F   21298.15091981  .00003168  00000-0  12344-3 0  9990
2 43937  97.1625 336.0931 0020850 272.2945  87.5907 15.26481975154047
PSAT2 (NO-104)          
1 44354U 19036R   21298.21403408  .00029476  00000-0  36956-3 0  9993
2 44354  28.5302 339.0890 0306643 247.4618 109.3249 15.18412032128688
BRICSAT2 (NO-103)       
1 44355U 19036S   21298.20129178  .00081879 -47314-5  73825-3 0  9998
2 44355  28.5257 269.2682 0220461   1.0218 359.0803 15.41436972129387
JAISAT-1                
1 44419U 19038F   21297.84962432  .00002616  00000-0  14608-3 0  9999
2 44419  97.6054 262.2183 0019476 222.6995 137.2724 15.14283048127373
DUCHIFAT-3              
1 44854U 19089C   21298.43379799  .00001171  00000-0  99393-4 0  9992
2 44854  36.9665  51.8454 0006774 105.8909 254.2574 14.99720063102626
CAS-6 (TO-108)          
1 44881U 19093C   21298.41714786  .00000131  00000-0  23413-4 0  9999
2 44881  97.9158  15.7739 0013896 227.3477 132.6566 14.81496488 99973
RS-44 & BREEZE-KM R/B   
1 44909U 19096E   21298.25374486  .00000022  00000-0  39201-4 0  9995
2 44909  82.5263  26.5581 0218091 149.4427 211.9593 12.79711236 85421
ORBITAL FACTORY 2 (OF-2)
1 45113U 19071C   21298.24111776  .00005087  00000-0  14824-3 0  9995
2 45113  51.6401 127.6929 0011468  46.1564 314.0365 15.37106474 97124
HUSKYSAT-1 (HO-107)     
1 45119U 19071J   21298.25390345  .00005352  00000-0  15579-3 0  9996
2 45119  51.6399 127.0191 0010911  42.6052 317.5776 15.37026450 97125
BY70-2                  
1 45857U 20042B   21298.49499290  .00001932  00000-0  27825-3 0  9997
2 45857  97.9762  12.8718 0012170 150.2173 209.9722 14.77440124 70741
SALSAT                  
1 46495U 20068K   21298.30390383  .00001586  00000-0  12020-3 0  9993
2 46495  97.6993 235.0880 0016927 357.5044   2.6093 15.03619374 58846
BY70-3                  
1 46839U 20079N   21298.49717659  .00005161  00000-0  15483-3 0  9995
2 46839  97.2292   9.7796 0008658  98.8940 318.8911 15.34864654 54147
RADFXSAT-2 (AO-109)     
1 47311U 21002C   21298.17832451  .00002614  00000-0  12249-3 0  9998
2 47311  60.6848 165.3966 0040064 113.1240 247.4076 15.22215785 42613
UVSQ-SAT                
1 47438U 21006AB  21298.11408285  .00001605  00000-0  93091-4 0  9994
2 47438  97.4726 356.9401 0012929  17.6104 342.5573 15.13514816 41664
DIY-1 (ARDUIQUBE)       
1 47963U 21022AH  21298.18647486  .00003599  00000-0  23672-3 0  9991
2 47963  97.5456 198.1922 0017727 217.7782 142.2203 15.08084308 31440
